{"type": "FeatureCollection", "features": [ {"type": "Feature", "properties": {"norad_id": 38495, "name": "FENGYUN 1C DEB", "group": "fengyun-1c-debris", "lat": 20.557013041322808, "lon": -179.28600583121005, "alt_km": 816.6441525371092, "timestamp": "2025-12-06T14:35:37.416540+00:00", "meta": {"OBJECT_NAME": "FENGYUN 1C DEB", "OBJECT_ID": "1999-025ESE", "EPOCH": "2025-12-02T06:20:41.771904", "MEAN_MOTION": 13.69106573, "ECCENTRICITY": 0.0252581, "INCLINATION": 99.1709, "RA_OF_ASC_NODE": 353.1036, "ARG_OF_PERICENTER": 165.9119, "MEAN_ANOMALY": 194.9245, "EPHEMERIS_TYPE": 0, "CLASSIFICATION_TYPE": "U", "NORAD_CAT_ID": 38495, "ELEMENT_SET_NO": 999, "REV_AT_EPOCH": 60969, "BSTAR": 0.0025866, "MEAN_MOTION_DOT": 2.759e-05, "MEAN_MOTION_DDOT": 0}, "tle": {"line1": "1 38495U 99025ESE 25336.26437236  .00002759  00000+0  25866-2 0  9997", "line2": "2 38495  99.1709 353.1036 0252581 165.9119 194.9245 13.69106573609697"}}, "geometry": {"type": "Point", "coordinates": [-179.28600583121005, 20.557013041322808]}}, {"type": "Feature", "properties": {"norad_id": 38496, "name": "FENGYUN 1C DEB", "group": "fengyun-1c-debris", "lat": 74.41843727598622, "lon": -155.92649000850176, "alt_km": 840.637779609473, "timestamp": "2025-12-06T14:35:37.416552+00:00", "meta": {"OBJECT_NAME": "FENGYUN 1C DEB", "OBJECT_ID": "1999-025ESF", "EPOCH": "2025-12-02T19:50:53.821248", "MEAN_MOTION": 14.09951283, "ECCENTRICITY": 0.00773026, "INCLINATION": 98.7623, "RA_OF_ASC_NODE": 346.8127, "ARG_OF_PERICENTER": 35.254, "MEAN_ANOMALY": 325.371, "EPHEMERIS_TYPE": 0, "CLASSIFICATION_TYPE": "U", "NORAD_CAT_ID": 38496, "ELEMENT_SET_NO": 999, "REV_AT_EPOCH": 80881, "BSTAR": 0.0012363442, "MEAN_MOTION_DOT": 2.198e-05, "MEAN_MOTION_DDOT": 0}, "tle": {"line1": "1 38496U 99025ESF 25336.82701182  .00002198  00000+0  12363-2 0  9999", "line2": "2 38496  98.7623 346.8127 0077302  35.2540 325.3710 14.09951283808814"}}, "geometry": {"type": "Point", "coordinates": [-155.92649000850176, 74.41843727598622]}}, {"type": "Feature", "properties": {"norad_id": 38498, "name": "FENGYUN 1C DEB", "group": "fengyun-1c-debris", "lat": -76.44117066394531, "lon": 136.3753325545604, "alt_km": 1706.6004523810498, "timestamp": "2025-12-06T14:35:37.416564+00:00", "meta": {"OBJECT_NAME": "FENGYUN 1C DEB", "OBJECT_ID": "1999-025ESH", "EPOCH": "2025-12-02T07:26:08.627712", "MEAN_MOTION": 12.96587855, "ECCENTRICITY": 0.05567868, "INCLINATION": 99.6992, "RA_OF_ASC_NODE": 357.7083, "ARG_OF_PERICENTER": 95.9018, "MEAN_ANOMALY": 270.5803, "EPHEMERIS_TYPE": 0, "CLASSIFICATION_TYPE": "U", "NORAD_CAT_ID": 38498, "ELEMENT_SET_NO": 999, "REV_AT_EPOCH": 53608, "BSTAR": 0.0021056117, "MEAN_MOTION_DOT": 1.199e-05, "MEAN_MOTION_DDOT": 0}, "tle": {"line1": "1 38498U 99025ESH 25336.30982208  .00001199  00000+0  21056-2 0  9993", "line2": "2 38498  99.6992 357.7083 0556786  95.9018 270.5803 12.96587855536083"}}, "geometry": {"type": "Point", "coordinates": [136.3753325545604, -76.44117066394531]}}, {"type": "Feature", "properties": {"norad_id": 38510, "name": "FENGYUN 1C DEB", "group": "fengyun-1c-debris", "lat": -5.490530956693532, "lon": -9.24372280000575, "alt_km": 922.0909906284978, "timestamp": "2025-12-06T14:35:37.416574+00:00", "meta": {"OBJECT_NAME": "FENGYUN 1C DEB", "OBJECT_ID": "1999-025ESV", "EPOCH": "2025-11-26T06:32:42.236448", "MEAN_MOTION": 14.13269737, "ECCENTRICITY": 0.00981735, "INCLINATION": 98.6025, "RA_OF_ASC_NODE": 339.985, "ARG_OF_PERICENTER": 196.9618, "MEAN_ANOMALY": 162.8266, "EPHEMERIS_TYPE": 0, "CLASSIFICATION_TYPE": "U", "NORAD_CAT_ID": 38510, "ELEMENT_SET_NO": 999, "REV_AT_EPOCH": 88437, "BSTAR": 0.0006714866, "MEAN_MOTION_DOT": 1.276e-05, "MEAN_MOTION_DDOT": 0}, "tle": {"line1": "1 38510U 99025ESV 25330.27271107  .00001276  00000+0  67149-3 0  9997", "line2": "2 38510  98.6025 339.9850 0098173 196.9618 162.8266 14.13269737884378"}}, "geometry": {"type": "Point", "coordinates": [-9.24372280000575, -5.490530956693532]}}, {"type": "Feature", "properties": {"norad_id": 38512, "name": "FENGYUN 1C DEB", "group": "fengyun-1c-debris", "lat": -6.0013043968397595, "lon": 42.27776612464623, "alt_km": 913.1994560455705, "timestamp": "2025-12-06T14:35:37.416584+00:00", "meta": {"OBJECT_NAME": "FENGYUN 1C DEB", "OBJECT_ID": "1999-025ESX", "EPOCH": "2025-11-24T15:04:33.900960", "MEAN_MOTION": 13.73922037, "ECCENTRICITY": 0.02258852, "INCLINATION": 98.3776, "RA_OF_ASC_NODE": 212.6517, "ARG_OF_PERICENTER": 154.1881, "MEAN_ANOMALY": 207.075, "EPHEMERIS_TYPE": 0, "CLASSIFICATION_TYPE": "U", "NORAD_CAT_ID": 38512, "ELEMENT_SET_NO": 999, "REV_AT_EPOCH": 59321, "BSTAR": 0.0011065478, "MEAN_MOTION_DOT": 1.212e-05, "MEAN_MOTION_DDOT": 0}, "tle": {"line1": "1 38512U 99025ESX 25328.62817015  .00001212  00000+0  11065-2 0  9994", "line2": "2 38512  98.3776 212.6517 0225885 154.1881 207.0750 13.73922037593211"}}, "geometry": {"type": "Point", "coordinates": [42.27776612464623, -6.0013043968397595]}}, {"type": "Feature", "properties": {"norad_id": 38514, "name": "FENGYUN 1C DEB", "group": "fengyun-1c-debris", "lat": 69.6231821892349, "lon": -11.644728312643565, "alt_km": 680.6413276895246, "timestamp": "2025-12-06T14:35:37.416594+00:00", "meta": {"OBJECT_NAME": "FENGYUN 1C DEB", "OBJECT_ID": "1999-025ESZ", "EPOCH": "2025-12-05T21:18:35.296992", "MEAN_MOTION": 14.15398664, "ECCENTRICITY": 0.02716454, "INCLINATION": 98.0566, "RA_OF_ASC_NODE": 10.1192, "ARG_OF_PERICENTER": 33.8686, "MEAN_ANOMALY": 327.9511, "EPHEMERIS_TYPE": 0, "CLASSIFICATION_TYPE": "U", "NORAD_CAT_ID": 38514, "ELEMENT_SET_NO": 999, "REV_AT_EPOCH": 87899, "BSTAR": 0.0084481193, "MEAN_MOTION_DOT": 0.00023594, "MEAN_MOTION_DDOT": 0}, "tle": {"line1": "1 38514U 99025ESZ 25339.88790853  .00023594  00000+0  84481-2 0  9995", "line2": "2 38514  98.0566  10.1192 0271645  33.8686 327.9511 14.15398664878996"}}, "geometry": {"type": "Point", "coordinates": [-11.644728312643565, 69.6231821892349]}}, {"type": "Feature", "properties": {"norad_id": 38516, "name": "FENGYUN 1C DEB", "group": "fengyun-1c-debris", "lat": -5.458352129018113, "lon": -34.522217605849875, "alt_km": 849.6575486998026, "timestamp": "2025-12-06T14:35:37.416604+00:00", "meta": {"OBJECT_NAME": "FENGYUN 1C DEB", "OBJECT_ID": "1999-025ETB", "EPOCH": "2025-12-03T04:33:56.311776", "MEAN_MOTION": 14.34038032, "ECCENTRICITY": 0.01111458, "INCLINATION": 98.4411, "RA_OF_ASC_NODE": 321.328, "ARG_OF_PERICENTER": 153.504, "MEAN_ANOMALY": 207.1887, "EPHEMERIS_TYPE": 0, "CLASSIFICATION_TYPE": "U", "NORAD_CAT_ID": 38516, "ELEMENT_SET_NO": 999, "REV_AT_EPOCH": 84736, "BSTAR": 0.00014402251, "MEAN_MOTION_DOT": 3.87e-06, "MEAN_MOTION_DDOT": 0}, "tle": {"line1": "1 38516U 99025ETB 25337.19023509  .00000387  00000+0  14402-3 0  9998", "line2": "2 38516  98.4411 321.3280 0111145 153.5040 207.1887 14.34038032847361"}}, "geometry": {"type": "Point", "coordinates": [-34.522217605849875, -5.458352129018113]}}, {"type": "Feature", "properties": {"norad_id": 38717, "name": "FENGYUN 1C DEB", "group": "fengyun-1c-debris", "lat": 14.53308987204843, "lon": 178.00868161253752, "alt_km": 863.6034404215652, "timestamp": "2025-12-06T14:35:37.416614+00:00", "meta": {"OBJECT_NAME": "FENGYUN 1C DEB", "OBJECT_ID": "1999-025ETJ", "EPOCH": "2025-12-01T00:20:32.745696", "MEAN_MOTION": 14.19799614, "ECCENTRICITY": 0.00572573, "INCLINATION": 99.1602, "RA_OF_ASC_NODE": 349.8258, "ARG_OF_PERICENTER": 27.4617, "MEAN_ANOMALY": 1.3685, "EPHEMERIS_TYPE": 0, "CLASSIFICATION_TYPE": "U", "NORAD_CAT_ID": 38717, "ELEMENT_SET_NO": 999, "REV_AT_EPOCH": 58260, "BSTAR": 0.0018132413, "MEAN_MOTION_DOT": 3.86e-05, "MEAN_MOTION_DDOT": 0}, "tle": {"line1": "1 38717U 99025ETJ 25335.01426789  .00003860  00000+0  18132-2 0  9999", "line2": "2 38717  99.1602 349.8258 0057257  27.4617   1.3685 14.19799614582602"}}, "geometry": {"type": "Point", "coordinates": [178.00868161253752, 14.53308987204843]}}, {"type": "Feature", "properties": {"norad_id": 38722, "name": "FENGYUN 1C DEB", "group": "fengyun-1c-debris", "lat": 67.79477219919906, "lon": 54.34449423835404, "alt_km": 615.8038651887591, "timestamp": "2025-12-06T14:35:37.416626+00:00", "meta": {"OBJECT_NAME": "FENGYUN 1C DEB", "OBJECT_ID": "1999-025ETP", "EPOCH": "2025-12-05T11:55:33.244320", "MEAN_MOTION": 14.58069916, "ECCENTRICITY": 0.01482923, "INCLINATION": 99.355, "RA_OF_ASC_NODE": 76.9145, "ARG_OF_PERICENTER": 116.7049, "MEAN_ANOMALY": 244.9414, "EPHEMERIS_TYPE": 0, "CLASSIFICATION_TYPE": "U", "NORAD_CAT_ID": 38722, "ELEMENT_SET_NO": 999, "REV_AT_EPOCH": 70358, "BSTAR": 0.0055080118, "MEAN_MOTION_DOT": 0.00029555, "MEAN_MOTION_DDOT": 0}, "tle": {"line1": "1 38722U 99025ETP 25339.49691255  .00029555  00000+0  55080-2 0  9995", "line2": "2 38722  99.3550  76.9145 0148292 116.7049 244.9414 14.58069916703581"}}, "geometry": {"type": "Point", "coordinates": [54.34449423835404, 67.79477219919906]}}, {"type": "Feature", "properties": {"norad_id": 38724, "name": "FENGYUN 1C DEB", "group": "fengyun-1c-debris", "lat": -46.01714207398625, "lon": 160.5188612934557, "alt_km": 914.7447914034037, "timestamp": "2025-12-06T14:35:37.416638+00:00", "meta": {"OBJECT_NAME": "FENGYUN 1C DEB", "OBJECT_ID": "1999-025ETR", "EPOCH": "2025-11-13T12:10:01.066656", "MEAN_MOTION": 14.14277973, "ECCENTRICITY": 0.012547, "INCLINATION": 98.7406, "RA_OF_ASC_NODE": 327.0705, "ARG_OF_PERICENTER": 154.7752, "MEAN_ANOMALY": 205.962, "EPHEMERIS_TYPE": 0, "CLASSIFICATION_TYPE": "U", "NORAD_CAT_ID": 38724, "ELEMENT_SET_NO": 999, "REV_AT_EPOCH": 56211, "BSTAR": 0.0084973, "MEAN_MOTION_DOT": 0.00017498, "MEAN_MOTION_DDOT": 0}, "tle": {"line1": "1 38724U 99025ETR 25317.50695679  .00017498  00000+0  84973-2 0  9995", "line2": "2 38724  98.7406 327.0705 0125470 154.7752 205.9620 14.14277973562118"}}, "geometry": {"type": "Point", "coordinates": [160.5188612934557, -46.01714207398625]}}]}